STARLINK-1434           
1 45712U 20035BH  26068.24137979  .00054112  00000+0  20295-2 0  9995
2 45712  53.0547  22.1128 0005343  88.0400 272.1210 15.26724568319325
STARLINK-36461          
1 67316U 26002M   26068.04591208  .00045577  00000+0  16544-2 0  9993
2 67316  43.0033 328.6278 0001564 266.7783  93.2890 15.27602407 11141
